{
  "norad_id": 68844,
  "name": "STARLINK-37538",
  "history": [
    {
      "epoch": "2026-05-02T10:00:03.000096Z",
      "apogee_km": 276.74164619454496,
      "perigee_km": 275.018255804237,
      "latitude_deg": -38.33311320231568,
      "longitude_deg": -60.04420521252268,
      "height_km": 291.18374683338106,
      "semi_major_axis_km": 6654.016950999391,
      "eccentricity": 0.0001295,
      "inclination_deg": 97.2826,
      "raan_deg": 136.0698,
      "arg_perigee_deg": 88.3448,
      "mean_anomaly_deg": 130.0587,
      "mean_motion_rev_day": 15.99472979
    },
    {
      "epoch": "2026-05-03T20:00:01.999008Z",
      "apogee_km": 290.892900542045,
      "perigee_km": 288.8618233673924,
      "latitude_deg": 75.53450570619421,
      "longitude_deg": -53.642723901161084,
      "height_km": 301.7703943969068,
      "semi_major_axis_km": 6668.014361954718,
      "eccentricity": 0.0001523,
      "inclination_deg": 97.2823,
      "raan_deg": 137.6055,
      "arg_perigee_deg": 71.3239,
      "mean_anomaly_deg": 6.0662,
      "mean_motion_rev_day": 15.94439233
    },
    {
      "epoch": "2026-05-04T20:00:01.999008Z",
      "apogee_km": 301.1413330425894,
      "perigee_km": 299.38892032454714,
      "latitude_deg": 46.41211219250147,
      "longitude_deg": -31.71516973539828,
      "height_km": 306.72272329505256,
      "semi_major_axis_km": 6678.402126683568,
      "eccentricity": 0.0001312,
      "inclination_deg": 97.2826,
      "raan_deg": 138.6818,
      "arg_perigee_deg": 72.6703,
      "mean_anomaly_deg": 334.1346,
      "mean_motion_rev_day": 15.9072063
    },
    {
      "epoch": "2026-05-05T20:00:03.000384Z",
      "apogee_km": 311.9369540928801,
      "perigee_km": 309.9248824630613,
      "latitude_deg": 2.5482529673576946,
      "longitude_deg": -24.287145646806355,
      "height_km": 313.42434565069186,
      "semi_major_axis_km": 6689.06791827797,
      "eccentricity": 0.0001504,
      "inclination_deg": 97.2834,
      "raan_deg": 139.7521,
      "arg_perigee_deg": 69.5362,
      "mean_anomaly_deg": 293.1587,
      "mean_motion_rev_day": 15.86917515
    },
    {
      "epoch": "2026-05-06T20:00:01.999008Z",
      "apogee_km": 323.04802225875846,
      "perigee_km": 321.175972688864,
      "latitude_deg": -55.017574252798575,
      "longitude_deg": -13.414209569162253,
      "height_km": 344.3861794709578,
      "semi_major_axis_km": 6700.248997473811,
      "eccentricity": 0.0001397,
      "inclination_deg": 97.284,
      "raan_deg": 140.8173,
      "arg_perigee_deg": 100.0357,
      "mean_anomaly_deg": 204.535,
      "mean_motion_rev_day": 15.82946906
    },
    {
      "epoch": "2026-05-07T20:00:01.999008Z",
      "apogee_km": 328.1428291169732,
      "perigee_km": 327.05649977733356,
      "latitude_deg": -53.34787713213632,
      "longitude_deg": 146.35772449320586,
      "height_km": 348.70930155173846,
      "semi_major_axis_km": 6705.736664447153,
      "eccentricity": 8.1e-05,
      "inclination_deg": 97.2839,
      "raan_deg": 141.8752,
      "arg_perigee_deg": 107.854,
      "mean_anomaly_deg": 125.8579,
      "mean_motion_rev_day": 15.81004187
    },
    {
      "epoch": "2026-05-08T20:00:01.999008Z",
      "apogee_km": 337.1946555166105,
      "perigee_km": 335.0917429582096,
      "latitude_deg": 22.37445095339114,
      "longitude_deg": 159.26264168389366,
      "height_km": 338.7965283222451,
      "semi_major_axis_km": 6714.28019923741,
      "eccentricity": 0.0001566,
      "inclination_deg": 97.2837,
      "raan_deg": 142.9316,
      "arg_perigee_deg": 83.7036,
      "mean_anomaly_deg": 73.7298,
      "mean_motion_rev_day": 15.77987542
    },
    {
      "epoch": "2026-05-09T20:00:04.000032Z",
      "apogee_km": 345.1282780781412,
      "perigee_km": 343.1815023467361,
      "latitude_deg": 66.71534896210095,
      "longitude_deg": -40.85887898828013,
      "height_km": 354.8386362508717,
      "semi_major_axis_km": 6722.291890212438,
      "eccentricity": 0.0001448,
      "inclination_deg": 97.2846,
      "raan_deg": 143.9827,
      "arg_perigee_deg": 92.3505,
      "mean_anomaly_deg": 335.3849,
      "mean_motion_rev_day": 15.75167392
    },
    {
      "epoch": "2026-05-10T20:00:01.999008Z",
      "apogee_km": 345.1231440554502,
      "perigee_km": 343.05538725613405,
      "latitude_deg": -25.62297031244127,
      "longitude_deg": -20.111913813935473,
      "height_km": 354.2470953194875,
      "semi_major_axis_km": 6722.226265655791,
      "eccentricity": 0.0001538,
      "inclination_deg": 97.2849,
      "raan_deg": 145.032,
      "arg_perigee_deg": 87.3134,
      "mean_anomaly_deg": 247.1184,
      "mean_motion_rev_day": 15.75190458
    },
    {
      "epoch": "2026-05-11T20:00:01.999008Z",
      "apogee_km": 345.0730062957218,
      "perigee_km": 342.919234843891,
      "latitude_deg": -60.658585227125734,
      "longitude_deg": 143.38845122089384,
      "height_km": 368.3132935352397,
      "semi_major_axis_km": 6722.133120569806,
      "eccentricity": 0.0001602,
      "inclination_deg": 97.2846,
      "raan_deg": 146.0827,
      "arg_perigee_deg": 95.2572,
      "mean_anomaly_deg": 146.0051,
      "mean_motion_rev_day": 15.75223198
    },
    {
      "epoch": "2026-05-12T20:00:01.999008Z",
      "apogee_km": 345.1091493811273,
      "perigee_km": 343.0924780370142,
      "latitude_deg": 31.67266423545361,
      "longitude_deg": 161.0184117103473,
      "height_km": 347.79119013158993,
      "semi_major_axis_km": 6722.23781370907,
      "eccentricity": 0.00015,
      "inclination_deg": 97.2833,
      "raan_deg": 147.1319,
      "arg_perigee_deg": 90.1908,
      "mean_anomaly_deg": 57.8969,
      "mean_motion_rev_day": 15.75186399
    },
    {
      "epoch": "2026-05-13T19:46:06.924864Z",
      "apogee_km": 344.8591527473054,
      "perigee_km": 343.1463515384603,
      "latitude_deg": 1.7151183628695725e-06,
      "longitude_deg": -19.938467923956328,
      "height_km": 347.12893895708356,
      "semi_major_axis_km": 6722.139752142883,
      "eccentricity": 0.0001274,
      "inclination_deg": 97.2833,
      "raan_deg": 148.1687,
      "arg_perigee_deg": 87.3104,
      "mean_anomaly_deg": 272.8307,
      "mean_motion_rev_day": 15.75220867
    },
    {
      "epoch": "2026-05-14T06:26:28.448448Z",
      "apogee_km": 344.6922938558446,
      "perigee_km": 343.2271456548069,
      "latitude_deg": -3.915294441005875e-06,
      "longitude_deg": -179.99975861217482,
      "height_km": 347.13974699764265,
      "semi_major_axis_km": 6722.0967197553255,
      "eccentricity": 0.00010898,
      "inclination_deg": 97.2832,
      "raan_deg": 148.6354,
      "arg_perigee_deg": 91.0416,
      "mean_anomaly_deg": 269.0974,
      "mean_motion_rev_day": 15.75235993
    },
    {
      "epoch": "2026-05-15T05:18:40.164480Z",
      "apogee_km": 344.7480870305626,
      "perigee_km": 343.2794315326755,
      "latitude_deg": 3.4975443884721646e-05,
      "longitude_deg": -162.98811466927796,
      "height_km": 347.2588750936412,
      "semi_major_axis_km": 6722.150759281619,
      "eccentricity": 0.00010924,
      "inclination_deg": 97.2833,
      "raan_deg": 149.6351,
      "arg_perigee_deg": 96.1303,
      "mean_anomaly_deg": 264.0087,
      "mean_motion_rev_day": 15.75216998
    },
    {
      "epoch": "2026-05-16T11:48:14.501664Z",
      "apogee_km": 344.2728153129992,
      "perigee_km": 343.41777916478895,
      "latitude_deg": 6.312252623160603e-06,
      "longitude_deg": 99.69991800578437,
      "height_km": 347.1556343474995,
      "semi_major_axis_km": 6721.982297238894,
      "eccentricity": 6.36e-05,
      "inclination_deg": 97.2821,
      "raan_deg": 150.9685,
      "arg_perigee_deg": 109.5031,
      "mean_anomaly_deg": 250.6303,
      "mean_motion_rev_day": 15.75276214
    }
  ]
}